satname,norad_id,inclination_deg,eccentricity,mean_motion_rev_per_day,perigee_km,apogee_km,l1,l2
STARLINK-1008,44714,53.1567,0.0001257,15.31028451,471.8814239719086,473.6037350982033,1 44714U 19074B   26055.52008345  .00001328  00000+0  55627-4 0  9998,2 44714  53.1567 240.0088 0001257  90.9450 269.1696 15.31028451346858
STARLINK-1012,44718,53.1628,7.74e-05,15.30194862,474.6999599665387,475.7608612416989,1 44718U 19074F   26055.49327256  .00002408  00000+0  93388-4 0  9999,2 44718  53.1628 240.1035 0000774 104.7701 255.3385 15.30194862346849
STARLINK-1017,44723,53.051,0.000302,15.22778991,495.38637012211257,499.53923240207587,1 44723U 19074L   26055.75056606  .00045044  00000+0  19057-2 0  9994,2 44723  53.0510 231.0932 0003020 133.4578 226.6670 15.22778991346993
STARLINK-1019,44724,53.0423,0.0005014,15.77799007,333.3112506469852,340.04486718806766,1 44724U 19074M   26055.91668981  .00080007  00000+0  46526-3 0  9998,2 44724  53.0423 200.7673 0005014 157.5408 323.6906 15.77799007  6013
STARLINK-1020,44725,53.1346,8.82e-05,15.24737791,490.9670013620007,492.1788181900856,1 44725U 19074N   26055.91668981  .01059104  00000+0  39161-1 0  9999,2 44725  53.1346 263.1029 0000882 102.0802 211.8331 15.24737791  5785
STARLINK-1031,44736,53.0401,0.0002626,15.85223069,313.9389015595416,317.45450301998335,1 44736U 19074Z   26055.91668981  .00168958  00000+0  68684-3 0  9992,2 44736  53.0401 184.8941 0002626 276.8406  42.9336 15.85223069  5938
STARLINK-1036,44741,53.0544,0.0004606,15.52870357,405.2244565590008,411.47616867138277,1 44741U 19074AE  26055.56026423  .00079521  00000+0  12535-2 0  9998,2 44741  53.0544 251.9625 0004606 165.0870 195.0275 15.52870357346685
STARLINK-1039,44744,53.0457,0.0006416,15.20315942,500.4707108115008,509.3030070272662,1 44744U 19074AH  26055.34168176  .00039161  00000+0  17835-2 0  9993,2 44744  53.0457 276.3873 0006416 133.2734 226.8797 15.20315942346326
STARLINK-1042,44747,53.043,0.0002261,15.49081836,417.8738232308342,420.9476743228297,1 44747U 19074AL  26055.62388145  .00023359  00000+0  43015-3 0  9999,2 44747  53.0430 157.4459 0002261 112.0451 248.0796 15.49081836348043
STARLINK-1043,44748,53.0516,0.0002759,15.52709315,406.94703156846936,410.6920741943504,1 44748U 19074AM  26055.85269954  .00027080  00000+0  43721-3 0  9990,2 44748  53.0516 256.3879 0002759  89.8918 270.2407 15.52709315346659
STARLINK-1046,44751,53.0539,0.0007537,15.42498195,433.6011853766604,443.8769443568408,1 44751U 19074AQ  26055.59133876  .00019628  00000+0  45384-3 0  9994,2 44751  53.0539 273.0399 0007537 131.1214 229.0442 15.42498195346392
STARLINK-1047,44752,53.0694,0.0003784,15.32223206,466.5897641399324,471.77181424279206,1 44752U 19074AR  26055.45227458  .00010183  00000+0  33399-3 0  9990,2 44752  53.0694 207.8295 0003784 156.1923 203.9254 15.32223206347312
STARLINK-1048,44753,53.0525,0.0004478,15.50725669,411.5643224831665,417.6479032150346,1 44753U 19074AS  26055.51343984  .00026599  00000+0  46097-3 0  9998,2 44753  53.0525 232.2554 0004478 141.6923 218.4405 15.50725669346954
STARLINK-1053,44758,53.0312,0.0005176,15.85372399,311.81184618376847,318.7408676908699,1 44758U 19074AX  26055.91668981  .00149179  00000+0  60343-3 0  9994,2 44758  53.0312 148.3732 0005176   2.7993  55.9582 15.85372399  6036
STARLINK-1063,44768,53.1578,8.73e-05,15.29326648,477.2254565645244,478.42250735197376,1 44768U 19074BH  26055.75463279 -.00527690  00000+0 -19624-1 0  9994,2 44768  53.1578 279.4777 0000873  69.1624 290.9470 15.29326648346335
STARLINK-1067,44771,53.0532,6.88e-05,15.54501599,403.135223012152,404.06839027194656,1 44771U 19074BL  26055.84815633  .00091494  00000+0  13566-2 0  9999,2 44771  53.0532 266.3446 0000688 180.2603 179.8406 15.54501599346514
STARLINK-1068,44772,53.0507,0.0004328,15.60212153,384.11576829159185,389.9717087388499,1 44772U 19074BM  26055.82517951  .00041455  00000+0  50301-3 0  9991,2 44772  53.0507 242.7296 0004328 168.8962 191.2146 15.60212153346839
STARLINK-1112,44925,53.0372,0.0001848,15.99049654,275.8243889309506,278.2841476237063,1 44925U 20001M   26055.91668981  .00371201  68799-4  75207-3 0  9994,2 44925  53.0372 307.3341 0001848 177.0240 260.0519 15.99049654  6066
STARLINK-1114,44927,53.0514,0.0008518,15.47795276,417.3837109402439,428.9704295903475,1 44927U 20001P   26055.77471191  .00065820  00000+0  12441-2 0  9998,2 44927  53.0514  31.2416 0008518  65.7712 294.4185 15.47795276338092
STARLINK-1123,44930,53.0831,0.0001041,15.13281733,525.4812654642064,526.9187484290533,1 44930U 20001S   26055.91668981  .01529392  00000+0  78373-1 0  9998,2 44930  53.0831  43.8723 0001041  79.8885 318.2707 15.13281733  5838
STARLINK-1094,44941,53.1617,0.0001343,15.30188425,474.3292206763008,476.17004032525347,1 44941U 20001AD  26055.62052204  .00000672  00000+0  34813-4 0  9991,2 44941  53.1617  20.2661 0001343  94.8166 265.2988 15.30188425338235
STARLINK-1122,44949,53.1619,0.0001565,15.30192431,474.16511604643256,476.31022231788575,1 44949U 20001AM  26055.32029335  .00000186  00000+0  18417-4 0  9997,2 44949  53.1619  21.7079 0001565  87.4509 272.6671 15.30192431338186
STARLINK-1080,44961,53.0543,0.0009199,15.44742062,425.87130715944204,438.40084756717533,1 44961U 20001AZ  26055.23399046  .00074109  00000+0  15526-2 0  9992,2 44961  53.0543 352.3638 0009199  68.4937 291.7048 15.44742062338595
STARLINK-1090,44968,53.055,0.0001673,15.063898,546.0842036017793,548.4014356894322,1 44968U 20001BG  26055.55720526  .00002513  00000+0  18759-3 0  9997,2 44968  53.0550   5.5725 0001673  90.6394 269.4787 15.06389800338437
STARLINK-1132,45044,53.1578,0.0005317,15.41956814,436.70919352294914,443.95995619565474,1 45044U 20006A   26055.70170437  .00070813  00000+0  16321-2 0  9995,2 45044  53.1578 315.4553 0005317 137.3049 222.8371 15.41956814334927
STARLINK-1131,45047,53.1592,9.65e-05,15.30174784,474.62900514371813,475.9517166243686,1 45047U 20006D   26055.08051914 -.00001127  00000+0 -25971-4 0  9994,2 45047  53.1592 344.1945 0000965 103.2844 256.8265 15.30174784334463
STARLINK-1134,45048,53.0344,0.0010347,15.42134776,432.7554683052076,446.8645278230015,1 45048U 20006E   26055.08741780  .00017580  00000+0  41222-3 0  9996,2 45048  53.0344 302.9035 0010347 126.9262 233.2691 15.42134776335048
STARLINK-1156,45054,53.1582,0.0001437,15.30202375,474.2231524332383,476.1928037799462,1 45054U 20006L   26055.91668981 -.00013106  00000+0 -43109-3 0  9994,2 45054  53.1582 340.3242 0001437  99.4631  44.3030 15.30202375  5703
STARLINK-1159,45057,53.0475,0.0005941,15.78040226,332.00489262946303,339.9826227957774,1 45057U 20006P   26055.40888310  .00117054  00000+0  66854-3 0  9998,2 45057  53.0475 301.3985 0005941 102.0716 258.0970 15.78040226335098
STARLINK-1166,45060,53.0545,0.0006198,15.43632575,431.1759160432748,439.62197520146674,1 45060U 20006S   26055.82767078  .00032487  00000+0  71619-3 0  9996,2 45060  53.0545 333.8733 0006198  98.8057 261.3651 15.43632575334678
STARLINK-1169,45061,53.1604,0.0001288,15.3019044,474.36089858164996,476.1263294278169,1 45061U 20006T   26055.79265162  .00003306  00000+0  12373-3 0  9990,2 45061  53.1604 340.9001 0001288  84.8310 275.2838 15.30190440334571
STARLINK-1171,45062,53.0467,0.0001921,15.55038624,400.7378844226632,403.342828563028,1 45062U 20006U   26055.91668981  .00086743  00000+0  12622-2 0  9993,2 45062  53.0467 311.3859 0001921 351.5335 262.3993 15.55038624  5954
STARLINK-1133,45064,53.1585,0.0001268,15.30192381,474.3688105473984,476.10682640136474,1 45064U 20006W   26055.73312010  .00000716  00000+0  36312-4 0  9994,2 45064  53.1585 317.9830 0001268  79.5619 280.5524 15.30192381334899
STARLINK-1167,45071,53.1594,0.0001468,15.29356265,476.72902610174606,478.74191025840446,1 45071U 20006AD  26055.75396564 -.00000314  00000+0  14712-5 0  9996,2 45071  53.1594 317.8590 0001468  83.1483 276.9684 15.29356265334898
STARLINK-1168,45072,53.1594,0.0001521,15.29354361,476.69837934713723,478.7839374829273,1 45072U 20006AE  26055.43701257 -.00000267  00000+0  31006-5 0  9993,2 45072  53.1594 319.3925 0001521  89.6973 270.4201 15.29354361334847
STARLINK-1172,45074,53.1601,0.000106,15.30170587,474.57642811372534,476.0293573709869,1 45074U 20006AG  26055.70996988 -.00003024  00000+0 -90106-4 0  9992,2 45074  53.1601 318.1135 0001060  92.0723 268.0399 15.30170587334880
STARLINK-1153,45080,53.1607,0.0001324,15.29365349,476.80060626342583,478.6160341042114,1 45080U 20006AN  26054.03925293  .00000571  00000+0  32129-4 0  9998,2 45080  53.1607 325.7333 0001324  99.6937 260.4213 15.29365349334634
STARLINK-1151,45081,53.0509,0.001188,15.56489926,389.7752106623966,405.87489650170664,1 45081U 20006AP  26055.39011778  .00057286  00000+0  79318-3 0  9998,2 45081  53.0509 304.7517 0011880 102.4363 257.7978 15.56489926335041
STARLINK-1185,45087,53.1497,0.0001405,15.29400776,476.639215966994,478.56567875170276,1 45087U 20006AV  26055.71182928  .00081969  00000+0  28178-2 0  9998,2 45087  53.1497 302.6462 0001405 126.5650 233.5479 15.29400776335109
STARLINK-1183,45088,53.1577,0.0001364,15.30013115,474.8382577988168,476.7080044825916,1 45088U 20006AW  26055.82050401  .00113319  00000+0  38021-2 0  9994,2 45088  53.1577 302.3627 0001364 102.3087 257.8067 15.30013115335111
STARLINK-1152,45096,53.0392,0.0006824,15.36486807,451.84386940671993,461.17179267212305,1 45096U 20006BE  26054.62182936  .00048337  00000+0  13394-2 0  9992,2 45096  53.0392 272.7384 0006824 142.6972 217.4505 15.36486807335421
STARLINK-1184,45098,53.0526,0.0006381,15.09794695,532.4143676739704,541.2392444832885,1 45098U 20006BG  26054.96470264  .00021919  00000+0  13546-2 0  9991,2 45098  53.0526 307.3747 0006381  97.4062 262.7654 15.09794695334968
STARLINK-1193,45100,53.0531,0.000564,15.4983258,413.38282309921215,421.04798060850317,1 45100U 20006BJ  26055.65261243  .00097244  00000+0  17022-2 0  9994,2 45100  53.0531 293.2841 0005640 161.8064 198.3147 15.49832580335222
